[Satellite]
VERSION=1.1
NAME=GLOBALSTAR M038
NICKNAME=GLOBALSTAR M038
TLE1=1 25624U 99004D   17186.22958750 -.00000083  00000-0  99557-4 0  9993
TLE2=2 25624  51.9958 153.6252 0001657  91.2573  11.2030 12.32424210844293
